NORAD_CAT_ID,OBJECT_NAME,OBJECT_TYPE,EPOCH,MEAN_MOTION,ECCENTRICITY,INCLINATION,RA_OF_ASC_NODE,ARG_OF_PERICENTER,MEAN_ANOMALY,BSTAR,MEAN_MOTION_DOT,MEAN_MOTION_DDOT,TLE_LINE0,TLE_LINE1,TLE_LINE2,SEMIMAJOR_AXIS,PERIOD,APOGEE,PERIGEE,DECAYED
51871.0,STARLINK-3567,PAYLOAD,2023-03-26 13:31:39,15.08835659,9.85e-05,53.2147,173.5067,90.7813,269.3292,0.00090485,0.0001414,0.0,0 STARLINK-3567,1 51871U 22022V   23085.56365509  .00014140  00000-0  90485-3 0  9996,2 51871  53.2147 173.5067 0000985  90.7813 269.3292 15.08835659 60318,6917.894,95.438,540.44,539.077,0.0
51871.0,STARLINK-3567,PAYLOAD,2023-03-27 05:25:31,15.08829903,0.0001135,53.2153,170.533,87.3497,272.7625,0.00093059,0.00014549,0.0,0 STARLINK-3567,1 51871U 22022V   23086.22606423  .00014549  00000-0  93059-3 0  9996,2 51871  53.2153 170.5330 0001135  87.3497 272.7625 15.08829903 60349,6917.911,95.438,540.561,538.991,0.0
51871.0,STARLINK-3567,PAYLOAD,2023-03-27 11:47:04,15.08832628,0.0001009,53.214,169.3437,78.5329,281.5776,0.0010374,0.00016257,0.0,0 STARLINK-3567,1 51871U 22022V   23086.49102130  .00016257  00000-0  10374-2 0  9997,2 51871  53.2140 169.3437 0001009  78.5329 281.5776 15.08832628 60450,6917.903,95.438,540.466,539.07,0.0
51871.0,STARLINK-3567,PAYLOAD,2023-03-28 11:37:49,15.08860109,0.000151,53.2152,164.8849,108.2381,251.8775,-4.1513e-05,-9.49e-06,0.0,0 STARLINK-3567,1 51871U 22022V   23087.48459948 -.00000949  00000-0 -41513-4 0  9993,2 51871  53.2152 164.8849 0001510 108.2381 251.8775 15.08860109 60539,6917.819,95.436,540.729,538.639,0.0
51871.0,STARLINK-3567,PAYLOAD,2023-03-29 05:07:04,15.08848389,0.0001321,53.2158,161.6141,72.6459,287.4677,2.7521e-05,1.5e-06,0.0,0 STARLINK-3567,1 51871U 22022V   23088.21324363  .00000150  00000-0  27521-4 0  9992,2 51871  53.2158 161.6141 0001321  72.6459 287.4677 15.08848389 60649,6917.855,95.437,540.634,538.806,0.0
51871.0,STARLINK-3567,PAYLOAD,2023-03-29 09:53:13,15.08848642,0.0001347,53.2167,160.722,73.1984,286.9156,1.1357e-05,-1.07e-06,0.0,0 STARLINK-3567,1 51871U 22022V   23088.41196498 -.00000107  00000-0  11357-4 0  9993,2 51871  53.2167 160.7220 0001347  73.1984 286.9156 15.08848642 60743,6917.854,95.437,540.651,538.787,0.0
51871.0,STARLINK-3567,PAYLOAD,2023-03-30 04:57:51,15.08840078,0.0001376,53.2174,157.1517,100.0943,260.0205,2.3284e-05,8.3e-07,0.0,0 STARLINK-3567,1 51871U 22022V   23089.20684548  .00000083  00000-0  23284-4 0  9993,2 51871  53.2174 157.1517 0001376 100.0943 260.0205 15.08840078 60795,6917.88,95.438,540.697,538.793,0.0
51871.0,STARLINK-3567,PAYLOAD,2023-03-30 11:19:23,15.08847988,0.0001131,53.2167,155.9621,94.7565,265.3556,2.8081e-05,1.59e-06,0.0,0 STARLINK-3567,1 51871U 22022V   23089.47180004  .00000159  00000-0  28081-4 0  9994,2 51871  53.2167 155.9621 0001131  94.7565 265.3556 15.08847988 60836,6917.856,95.437,540.503,538.939,0.0
51871.0,STARLINK-3567,PAYLOAD,2023-03-31 04:48:38,15.08836407,0.0001083,53.2154,152.6906,85.6315,274.4801,3.9522e-05,3.41e-06,0.0,0 STARLINK-3567,1 51871U 22022V   23090.20044757  .00000341  00000-0  39522-4 0  9996,2 51871  53.2154 152.6906 0001083  85.6315 274.4801 15.08836407 60940,6917.891,95.438,540.506,539.007,0.0
51871.0,STARLINK-3567,PAYLOAD,2023-03-31 14:20:56,15.08848032,0.0001124,53.215,150.9053,83.8652,276.2468,0.00011699,1.575e-05,0.0,0 STARLINK-3567,1 51871U 22022V   23090.59787777  .00001575  00000-0  11699-3 0  9998,2 51871  53.2150 150.9053 0001124  83.8652 276.2468 15.08848032 61004,6917.856,95.437,540.498,538.943,0.0
51871.0,STARLINK-3567,PAYLOAD,2023-03-31 20:42:29,15.08835459,0.0001193,53.2159,149.7144,81.1821,278.9307,8.0257e-05,9.9e-06,0.0,0 STARLINK-3567,1 51871U 22022V   23090.86284718  .00000990  00000-0  80257-4 0  9992,2 51871  53.2159 149.7144 0001193  81.1821 278.9307 15.08835459 61049,6917.894,95.438,540.585,538.934,0.0
51871.0,STARLINK-3567,PAYLOAD,2023-04-01 04:39:26,15.08823726,0.0001162,53.2163,148.2306,89.4455,270.667,-8.2034e-05,-1.593e-05,0.0,0 STARLINK-3567,1 51871U 22022V   23091.19406171 -.00001593  00000-0 -82034-4 0  9995,2 51871  53.2163 148.2306 0001162  89.4455 270.6670 15.08823726 61099,6917.93,95.439,540.599,538.991,0.0
51871.0,STARLINK-3567,PAYLOAD,2023-04-01 11:00:59,15.0882357,0.0001098,53.2168,147.041,85.0648,275.0469,-4.5279e-05,-1.008e-05,0.0,0 STARLINK-3567,1 51871U 22022V   23091.45902261 -.00001008  00000-0 -45279-4 0  9996,2 51871  53.2168 147.0410 0001098  85.0648 275.0469 15.08823570 61206,6917.931,95.439,540.555,539.036,0.0
51871.0,STARLINK-3567,PAYLOAD,2023-04-01 20:33:17,15.08832837,0.0001224,53.2163,145.2568,83.8259,276.2873,4.6943e-05,4.59e-06,0.0,0 STARLINK-3567,1 51871U 22022V   23091.85645739  .00000459  00000-0  46943-4 0  9990,2 51871  53.2163 145.2568 0001224  83.8259 276.2873 15.08832837 61196,6917.902,95.438,540.614,538.921,0.0
51871.0,STARLINK-3567,PAYLOAD,2023-04-02 07:40:58,15.08847958,0.0001183,53.217,143.1749,92.6554,267.4574,0.00011999,1.623e-05,0.0,0 STARLINK-3567,1 51871U 22022V   23092.32012673  .00001623  00000-0  11999-3 0  9994,2 51871  53.2170 143.1749 0001183  92.6554 267.4574 15.08847958 61260,6917.856,95.437,540.539,538.903,0.0
51871.0,STARLINK-3567,PAYLOAD,2023-04-02 14:02:31,15.08853033,0.0001145,53.2145,141.9836,81.4561,278.6561,0.00028116,4.191e-05,0.0,0 STARLINK-3567,1 51871U 22022V   23092.58508514  .00004191  00000-0  28116-3 0  9998,2 51871  53.2145 141.9836 0001145  81.4561 278.6561 15.08853033 61370,6917.841,95.437,540.498,538.913,0.0
51871.0,STARLINK-3567,PAYLOAD,2023-04-02 20:24:04,15.08850267,0.0001192,53.2147,140.7951,77.5925,282.52,0.00018851,2.714e-05,0.0,0 STARLINK-3567,1 51871U 22022V   23092.85004665  .00002714  00000-0  18851-3 0  9990,2 51871  53.2147 140.7951 0001192  77.5925 282.5200 15.08850267 61414,6917.849,95.437,540.539,538.889,0.0
51871.0,STARLINK-3567,PAYLOAD,2023-04-03 02:45:36,15.08845428,8.24e-05,53.2132,139.6067,78.0319,282.0765,0.0003324,5.007e-05,0.0,0 STARLINK-3567,1 51871U 22022V   23093.11500957  .00005007  00000-0  33240-3 0  9992,2 51871  53.2132 139.6067 0000824  78.0319 282.0765 15.08845428 61387,6917.864,95.437,540.299,539.159,0.0
51871.0,STARLINK-3567,PAYLOAD,2023-04-03 09:07:09,15.08848535,0.0001224,53.2144,138.4163,78.9352,281.1777,0.00030571,4.582e-05,0.0,0 STARLINK-3567,1 51871U 22022V   23093.37996960  .00004582  00000-0  30571-3 0  9994,2 51871  53.2144 138.4163 0001224  78.9352 281.1777 15.08848535 61492,6917.854,95.437,540.566,538.873,0.0
51871.0,STARLINK-3567,PAYLOAD,2023-04-03 20:14:50,15.08850116,0.0001248,53.213,136.3332,81.323,278.7903,0.00016146,2.283e-05,0.0,0 STARLINK-3567,1 51871U 22022V   23093.84364533  .00002283  00000-0  16146-3 0  9999,2 51871  53.2130 136.3332 0001248  81.3230 278.7903 15.08850116 61560,6917.849,95.437,540.578,538.851,0.0
51871.0,STARLINK-3567,PAYLOAD,2023-04-04 08:57:55,15.08849791,0.0001229,53.2141,133.9554,82.2681,277.845,1.6509e-05,-2.5e-07,0.0,0 STARLINK-3567,1 51871U 22022V   23094.37356465 -.00000025  00000-0  16509-4 0  9990,2 51871  53.2141 133.9554 0001229  82.2681 277.8450 15.08849791 61575,6917.85,95.437,540.566,538.865,0.0
51871.0,STARLINK-3567,PAYLOAD,2023-04-05 05:37:57,15.08836294,0.0001225,53.214,130.0893,82.647,277.4661,-1.6185e-05,-5.45e-06,0.0,0 STARLINK-3567,1 51871U 22022V   23095.23469116 -.00000545  00000-0 -16185-4 0  9992,2 51871  53.2140 130.0893 0001225  82.6470 277.4661 15.08836294 61703,6917.892,95.438,540.604,538.909,0.0
51871.0,STARLINK-3567,PAYLOAD,2023-04-05 08:48:43,15.08839414,0.0001176,53.2149,129.4947,70.4812,289.6307,2.0392e-05,3.7e-07,0.0,0 STARLINK-3567,1 51871U 22022V   23095.36717197  .00000037  00000-0  20392-4 0  9990,2 51871  53.2149 129.4947 0001176  70.4812 289.6307 15.08839414 61792,6917.882,95.438,540.561,538.934,0.0
51871.0,STARLINK-3567,PAYLOAD,2023-04-06 07:04:07,15.08831575,0.0001153,53.2147,125.3309,82.3217,277.7906,0.00011508,1.544e-05,0.0,0 STARLINK-3567,1 51871U 22022V   23096.29453436  .00001544  00000-0  11508-3 0  9998,2 51871  53.2147 125.3309 0001153  82.3217 277.7906 15.08831575 61864,6917.906,95.438,540.569,538.974,0.0
51871.0,STARLINK-3567,PAYLOAD,2023-04-06 11:50:16,15.08841863,0.000127,53.2145,124.438,81.9106,278.203,5.3842e-05,5.69e-06,0.0,0 STARLINK-3567,1 51871U 22022V   23096.49324892  .00000569  00000-0  53842-4 0  9997,2 51871  53.2145 124.4380 0001270  81.9106 278.2030 15.08841863 61891,6917.875,95.437,540.618,538.861,0.0
51871.0,STARLINK-3567,PAYLOAD,2023-04-07 05:19:31,15.08834851,0.0001395,53.2148,121.1656,87.512,272.6031,7.3502e-05,8.82e-06,0.0,0 STARLINK-3567,1 51871U 22022V   23097.22189503  .00000882  00000-0  73502-4 0  9990,2 51871  53.2148 121.1656 0001395  87.5120 272.6031 15.08834851 62002,6917.896,95.438,540.726,538.796,0.0
51871.0,STARLINK-3567,PAYLOAD,2023-04-07 10:05:40,15.08838107,0.0001424,53.2155,120.2748,85.2382,274.8773,9.5444e-05,1.231e-05,0.0,0 STARLINK-3567,1 51871U 22022V   23097.42061309  .00001231  00000-0  95444-4 0  9993,2 51871  53.2155 120.2748 0001424  85.2382 274.8773 15.08838107 62106,6917.886,95.438,540.736,538.766,0.0
51871.0,STARLINK-3567,PAYLOAD,2023-04-08 06:45:41,15.08840552,0.0001456,53.2152,116.4089,77.2268,282.8887,5.7895e-05,6.34e-06,0.0,0 STARLINK-3567,1 51871U 22022V   23098.28173456  .00000634  00000-0  57895-4 0  9999,2 51871  53.2152 116.4089 0001456  77.2268 282.8887 15.08840552 62165,6917.879,95.438,540.751,538.736,0.0
51871.0,STARLINK-3567,PAYLOAD,2023-04-09 08:11:52,15.08840133,0.0001488,53.2167,111.6513,80.8756,279.2404,5.2425e-05,5.46e-06,0.0,0 STARLINK-3567,1 51871U 22022V   23099.34157570  .00000546  00000-0  52425-4 0  9992,2 51871  53.2167 111.6513 0001488  80.8756 279.2404 15.08840133 62325,6917.88,95.438,540.774,538.716,0.0
51871.0,STARLINK-3567,PAYLOAD,2023-04-09 17:44:11,15.08839004,0.000149,53.217,109.8671,83.2149,276.9013,4.1724e-05,3.76e-06,0.0,0 STARLINK-3567,1 51871U 22022V   23099.73901661  .00000376  00000-0  41724-4 0  9994,2 51871  53.2170 109.8671 0001490  83.2149 276.9013 15.08839004 62458,6917.883,95.438,540.779,538.718,0.0
